[{"OBJECT_NAME":"STARLINK-36866","OBJECT_ID":"2026-035S","EPOCH":"2026-03-16T20:00:01.999008","MEAN_MOTION":15.75255965,"ECCENTRICITY":0.000149,"INCLINATION":97.2866,"RA_OF_ASC_NODE":8.6001,"ARG_OF_PERICENTER":98.1229,"MEAN_ANOMALY":112.0226,"EPHEMERIS_TYPE":0,"CLASSIFICATION_TYPE":"U","NORAD_CAT_ID":67895,"ELEMENT_SET_NO":999,"REV_AT_EPOCH":490,"BSTAR":-0.00098438,"MEAN_MOTION_DOT":-0.00144912,"MEAN_MOTION_DDOT":0},{"OBJECT_NAME":"STARLINK-36877","OBJECT_ID":"2026-035T","EPOCH":"2026-03-16T06:55:13.239552","MEAN_MOTION":15.80950306,"ECCENTRICITY":0.00024535,"INCLINATION":97.2861,"RA_OF_ASC_NODE":8.0224,"ARG_OF_PERICENTER":58.0192,"MEAN_ANOMALY":302.1314,"EPHEMERIS_TYPE":0,"CLASSIFICATION_TYPE":"U","NORAD_CAT_ID":67896,"ELEMENT_SET_NO":999,"REV_AT_EPOCH":488,"BSTAR":0.00077205473,"MEAN_MOTION_DOT":0.00151273,"MEAN_MOTION_DDOT":0},{"OBJECT_NAME":"STARLINK-36870","OBJECT_ID":"2026-035U","EPOCH":"2026-03-16T17:30:02.227680","MEAN_MOTION":15.80916348,"ECCENTRICITY":0.000149,"INCLINATION":97.291,"RA_OF_ASC_NODE":8.4936,"ARG_OF_PERICENTER":129.3598,"MEAN_ANOMALY":230.7802,"EPHEMERIS_TYPE":0,"CLASSIFICATION_TYPE":"U","NORAD_CAT_ID":67897,"ELEMENT_SET_NO":999,"REV_AT_EPOCH":495,"BSTAR":0.0011883,"MEAN_MOTION_DOT":0.00234777,"MEAN_MOTION_DDOT":0},{"OBJECT_NAME":"STARLINK-36810","OBJECT_ID":"2026-035V","EPOCH":"2026-03-16T06:50:53.795904","MEAN_MOTION":15.81072452,"ECCENTRICITY":1.77e-5,"INCLINATION":97.284,"RA_OF_ASC_NODE":8.025,"ARG_OF_PERICENTER":272.8906,"MEAN_ANOMALY":87.2342,"EPHEMERIS_TYPE":0,"CLASSIFICATION_TYPE":"U","NORAD_CAT_ID":67898,"ELEMENT_SET_NO":999,"REV_AT_EPOCH":488,"BSTAR":0.0022128537,"MEAN_MOTION_DOT":0.00451752,"MEAN_MOTION_DDOT":0},{"OBJECT_NAME":"STARLINK-36878","OBJECT_ID":"2026-035W","EPOCH":"2026-03-16T17:26:47.348160","MEAN_MOTION":15.80946581,"ECCENTRICITY":0.0001663,"INCLINATION":97.289,"RA_OF_ASC_NODE":8.4963,"ARG_OF_PERICENTER":114.8164,"MEAN_ANOMALY":245.3277,"EPHEMERIS_TYPE":0,"CLASSIFICATION_TYPE":"U","NORAD_CAT_ID":67899,"ELEMENT_SET_NO":999,"REV_AT_EPOCH":495,"BSTAR":0.0014116,"MEAN_MOTION_DOT":0.00280807,"MEAN_MOTION_DDOT":0},{"OBJECT_NAME":"STARLINK-36361","OBJECT_ID":"2026-035X","EPOCH":"2026-03-16T06:47:38.580288","MEAN_MOTION":15.80912974,"ECCENTRICITY":0.00021529,"INCLINATION":97.2867,"RA_OF_ASC_NODE":8.0289,"ARG_OF_PERICENTER":45.2101,"MEAN_ANOMALY":314.9342,"EPHEMERIS_TYPE":0,"CLASSIFICATION_TYPE":"U","NORAD_CAT_ID":67900,"ELEMENT_SET_NO":999,"REV_AT_EPOCH":488,"BSTAR":0.0017527401,"MEAN_MOTION_DOT":0.00351009,"MEAN_MOTION_DDOT":0},{"OBJECT_NAME":"STARLINK-36336","OBJECT_ID":"2026-035Y","EPOCH":"2026-03-16T17:22:28.106688","MEAN_MOTION":15.80909506,"ECCENTRICITY":0.0001689,"INCLINATION":97.2894,"RA_OF_ASC_NODE":8.5026,"ARG_OF_PERICENTER":98.276,"MEAN_ANOMALY":261.87,"EPHEMERIS_TYPE":0,"CLASSIFICATION_TYPE":"U","NORAD_CAT_ID":67901,"ELEMENT_SET_NO":999,"REV_AT_EPOCH":495,"BSTAR":0.0012127,"MEAN_MOTION_DOT":0.00239672,"MEAN_MOTION_DDOT":0},{"OBJECT_NAME":"STARLINK-36876","OBJECT_ID":"2026-035Z","EPOCH":"2026-03-16T06:46:33.754368","MEAN_MOTION":15.80857482,"ECCENTRICITY":0.00023612,"INCLINATION":97.2867,"RA_OF_ASC_NODE":8.0319,"ARG_OF_PERICENTER":44.812,"MEAN_ANOMALY":315.3339,"EPHEMERIS_TYPE":0,"CLASSIFICATION_TYPE":"U","NORAD_CAT_ID":67902,"ELEMENT_SET_NO":999,"REV_AT_EPOCH":488,"BSTAR":0.0017882224,"MEAN_MOTION_DOT":0.00357484,"MEAN_MOTION_DDOT":0},{"OBJECT_NAME":"STARLINK-36257","OBJECT_ID":"2026-035AA","EPOCH":"2026-03-16T20:00:01.999008","MEAN_MOTION":15.75195239,"ECCENTRICITY":0.0001196,"INCLINATION":97.2879,"RA_OF_ASC_NODE":8.5986,"ARG_OF_PERICENTER":99.1901,"MEAN_ANOMALY":102.9544,"EPHEMERIS_TYPE":0,"CLASSIFICATION_TYPE":"U","NORAD_CAT_ID":67903,"ELEMENT_SET_NO":999,"REV_AT_EPOCH":495,"BSTAR":1.0846e-5,"MEAN_MOTION_DOT":1.489e-5,"MEAN_MOTION_DDOT":0},{"OBJECT_NAME":"STARLINK-36814","OBJECT_ID":"2026-036A","EPOCH":"2026-03-16T20:00:01.999008","MEAN_MOTION":15.50601974,"ECCENTRICITY":0.0001506,"INCLINATION":43.0003,"RA_OF_ASC_NODE":207.4157,"ARG_OF_PERICENTER":281.8176,"MEAN_ANOMALY":168.6908,"EPHEMERIS_TYPE":0,"CLASSIFICATION_TYPE":"U","NORAD_CAT_ID":67904,"ELEMENT_SET_NO":999,"REV_AT_EPOCH":479,"BSTAR":-0.00069109,"MEAN_MOTION_DOT":-0.00040707,"MEAN_MOTION_DDOT":0},{"OBJECT_NAME":"STARLINK-36729","OBJECT_ID":"2026-036B","EPOCH":"2026-03-16T20:00:01.999008","MEAN_MOTION":15.5517483,"ECCENTRICITY":0.0001626,"INCLINATION":43,"RA_OF_ASC_NODE":206.7909,"ARG_OF_PERICENTER":275.6617,"MEAN_ANOMALY":67.7863,"EPHEMERIS_TYPE":0,"CLASSIFICATION_TYPE":"U","NORAD_CAT_ID":67905,"ELEMENT_SET_NO":999,"REV_AT_EPOCH":479,"BSTAR":-0.029989,"MEAN_MOTION_DOT":-0.01841247,"MEAN_MOTION_DDOT":0},{"OBJECT_NAME":"STARLINK-36763","OBJECT_ID":"2026-036C","EPOCH":"2026-03-16T20:00:01.999008","MEAN_MOTION":15.56119347,"ECCENTRICITY":0.0001675,"INCLINATION":42.9998,"RA_OF_ASC_NODE":206.7271,"ARG_OF_PERICENTER":275.7301,"MEAN_ANOMALY":93.3866,"EPHEMERIS_TYPE":0,"CLASSIFICATION_TYPE":"U","NORAD_CAT_ID":67906,"ELEMENT_SET_NO":999,"REV_AT_EPOCH":479,"BSTAR":-0.028982,"MEAN_MOTION_DOT":-0.01843152,"MEAN_MOTION_DDOT":0},{"OBJECT_NAME":"STARLINK-36742","OBJECT_ID":"2026-036D","EPOCH":"2026-03-16T20:00:01.999008","MEAN_MOTION":15.55200679,"ECCENTRICITY":0.0001676,"INCLINATION":42.9999,"RA_OF_ASC_NODE":206.7679,"ARG_OF_PERICENTER":274.2462,"MEAN_ANOMALY":78.3185,"EPHEMERIS_TYPE":0,"CLASSIFICATION_TYPE":"U","NORAD_CAT_ID":67907,"ELEMENT_SET_NO":999,"REV_AT_EPOCH":479,"BSTAR":-0.029993,"MEAN_MOTION_DOT":-0.01843081,"MEAN_MOTION_DDOT":0},{"OBJECT_NAME":"STARLINK-36827","OBJECT_ID":"2026-036E","EPOCH":"2026-03-16T20:00:01.999008","MEAN_MOTION":15.59718089,"ECCENTRICITY":0.0001745,"INCLINATION":42.9998,"RA_OF_ASC_NODE":206.5205,"ARG_OF_PERICENTER":287.3777,"MEAN_ANOMALY":164.9946,"EPHEMERIS_TYPE":0,"CLASSIFICATION_TYPE":"U","NORAD_CAT_ID":67908,"ELEMENT_SET_NO":999,"REV_AT_EPOCH":479,"BSTAR":-0.025075,"MEAN_MOTION_DOT":-0.01830379,"MEAN_MOTION_DDOT":0},{"OBJECT_NAME":"STARLINK-36822","OBJECT_ID":"2026-036F","EPOCH":"2026-03-16T20:00:01.999008","MEAN_MOTION":15.55749751,"ECCENTRICITY":0.0001651,"INCLINATION":42.9999,"RA_OF_ASC_NODE":206.7155,"ARG_OF_PERICENTER":276.4232,"MEAN_ANOMALY":97.2119,"EPHEMERIS_TYPE":0,"CLASSIFICATION_TYPE":"U","NORAD_CAT_ID":67909,"ELEMENT_SET_NO":999,"REV_AT_EPOCH":479,"BSTAR":-0.029388,"MEAN_MOTION_DOT":-0.01843255,"MEAN_MOTION_DDOT":0},{"OBJECT_NAME":"STARLINK-36847","OBJECT_ID":"2026-036G","EPOCH":"2026-03-16T20:00:01.999008","MEAN_MOTION":15.54886426,"ECCENTRICITY":0.0001501,"INCLINATION":43.0001,"RA_OF_ASC_NODE":206.7535,"ARG_OF_PERICENTER":275.0451,"MEAN_ANOMALY":83.0976,"EPHEMERIS_TYPE":0,"CLASSIFICATION_TYPE":"U","NORAD_CAT_ID":67910,"ELEMENT_SET_NO":999,"REV_AT_EPOCH":479,"BSTAR":-0.030305,"MEAN_MOTION_DOT":-0.01840749,"MEAN_MOTION_DDOT":0},{"OBJECT_NAME":"STARLINK-36736","OBJECT_ID":"2026-036H","EPOCH":"2026-03-16T20:00:01.999008","MEAN_MOTION":15.63184109,"ECCENTRICITY":0.000135,"INCLINATION":42.9999,"RA_OF_ASC_NODE":206.3363,"ARG_OF_PERICENTER":290.1012,"MEAN_ANOMALY":236.144,"EPHEMERIS_TYPE":0,"CLASSIFICATION_TYPE":"U","NORAD_CAT_ID":67911,"ELEMENT_SET_NO":999,"REV_AT_EPOCH":479,"BSTAR":-0.02222,"MEAN_MOTION_DOT":-0.01854388,"MEAN_MOTION_DDOT":0}]
