STARLINK-36866          
1 67895U 26035S   26075.83335647 -.00144912  00000+0 -98438-3 0  9997
2 67895  97.2866   8.6001 0001490  98.1229 112.0226 15.75255965  4902
STARLINK-36877          
1 67896U 26035T   26075.28834768  .00151273  00000+0  77205-3 0  9990
2 67896  97.2861   8.0224 0002453  58.0192 302.1314 15.80950306  4887
STARLINK-36870          
1 67897U 26035U   26075.72919245  .00234777  00000+0  11883-2 0  9994
2 67897  97.2910   8.4936 0001490 129.3598 230.7802 15.80916348  4953
STARLINK-36810          
1 67898U 26035V   26075.28534486  .00451752  00000+0  22129-2 0  9995
2 67898  97.2840   8.0250 0000177 272.8906  87.2342 15.81072452  4885
STARLINK-36878          
1 67899U 26035W   26075.72693690  .00280807  00000+0  14116-2 0  9996
2 67899  97.2890   8.4963 0001663 114.8164 245.3277 15.80946581  4952
STARLINK-36361          
1 67900U 26035X   26075.28308542  .00351009  00000+0  17527-2 0  9991
2 67900  97.2867   8.0289 0002152  45.2101 314.9342 15.80912974  4885
STARLINK-36336          
1 67901U 26035Y   26075.72393642  .00239672  00000+0  12127-2 0  9998
2 67901  97.2894   8.5026 0001689  98.2760 261.8700 15.80909506  4956
STARLINK-36876          
1 67902U 26035Z   26075.28233512  .00357484  00000+0  17882-2 0  9994
2 67902  97.2867   8.0319 0002361  44.8120 315.3339 15.80857482  4882
STARLINK-36257          
1 67903U 26035AA  26075.83335647  .00001489  00000+0  10846-4 0  9994
2 67903  97.2879   8.5986 0001196  99.1901 102.9544 15.75195239  4951
STARLINK-36814          
1 67904U 26036A   26075.83335647 -.00040707  00000+0 -69109-3 0  9999
2 67904  43.0003 207.4157 0001506 281.8176 168.6908 15.50601974  4795
STARLINK-36729          
1 67905U 26036B   26075.83335647 -.01841247  00000+0 -29989-1 0  9999
2 67905  43.0000 206.7909 0001626 275.6617  67.7863 15.55174830  4794
STARLINK-36763          
1 67906U 26036C   26075.83335647 -.01843152  00000+0 -28982-1 0  9999
2 67906  42.9998 206.7271 0001675 275.7301  93.3866 15.56119347  4797
STARLINK-36742          
1 67907U 26036D   26075.83335647 -.01843081  00000+0 -29993-1 0  9994
2 67907  42.9999 206.7679 0001676 274.2462  78.3185 15.55200679  4799
STARLINK-36827          
1 67908U 26036E   26075.83335647 -.01830379  00000+0 -25075-1 0  9998
2 67908  42.9998 206.5205 0001745 287.3777 164.9946 15.59718089  4793
STARLINK-36822          
1 67909U 26036F   26075.83335647 -.01843255  00000+0 -29388-1 0  9997
2 67909  42.9999 206.7155 0001651 276.4232  97.2119 15.55749751  4798
STARLINK-36847          
1 67910U 26036G   26075.83335647 -.01840749  00000+0 -30305-1 0  9995
2 67910  43.0001 206.7535 0001501 275.0451  83.0976 15.54886426  4794
STARLINK-36736          
1 67911U 26036H   26075.83335647 -.01854388  00000+0 -22220-1 0  9997
2 67911  42.9999 206.3363 0001350 290.1012 236.1440 15.63184109  4793
